{
  "type": "FeatureCollection",
  "features": [
    {
      "type": "Feature",
      "properties": {
        "norad_id": 2807,
        "name": "OPS 7218 (TRANSIT 16)",
        "group": "nnss",
        "lat": 51.40418805434648,
        "lon": -5.233284768424244,
        "alt_km": 1064.9686618263304,
        "timestamp": "2025-12-02T10:50:47.542369+00:00",
        "meta_object_name": "OPS 7218 (TRANSIT 16)",
        "meta_object_id": "1967-048A",
        "meta_epoch": "2025-12-02T03:48:58.538304",
        "meta_mean_motion": 13.50719083,
        "meta_eccentricity": 0.002139,
        "meta_inclination": 89.6737,
        "meta_ra_of_asc_node": 354.3673,
        "meta_arg_of_pericenter": 142.6225,
        "meta_mean_anomaly": 285.552,
        "meta_ephemeris_type": 0,
        "meta_classification_type": "U",
        "meta_norad_cat_id": 2807,
        "meta_element_set_no": 999,
        "meta_rev_at_epoch": 88133,
        "meta_bstar": 0.00020275,
        "meta_mean_motion_dot": 1.41e-06,
        "meta_mean_motion_ddot": 0,
        "tle_line1": "1 02807U 67048A   25336.15901086  .00000141  00000+0  20275-3 0  9995",
        "tle_line2": "2 02807  89.6737 354.3673 0021390 142.6225 285.5520 13.50719083881334"
      },
      "geometry": {
        "type": "Point",
        "coordinates": [
          -5.233284768424244,
          51.40418805434648
        ]
      }
    },
    {
      "type": "Feature",
      "properties": {
        "norad_id": 2965,
        "name": "OPS 4947 (TRANSIT 17)",
        "group": "nnss",
        "lat": 15.567550293353595,
        "lon": 25.428690292965868,
        "alt_km": 1071.9393737068758,
        "timestamp": "2025-12-02T10:50:47.542394+00:00",
        "meta_object_name": "OPS 4947 (TRANSIT 17)",
        "meta_object_id": "1967-092A",
        "meta_epoch": "2025-12-02T03:56:14.949024",
        "meta_mean_motion": 13.53449539,
        "meta_eccentricity": 0.0045741,
        "meta_inclination": 89.2508,
        "meta_ra_of_asc_node": 25.2417,
        "meta_arg_of_pericenter": 266.3193,
        "meta_mean_anomaly": 147.0431,
        "meta_ephemeris_type": 0,
        "meta_classification_type": "U",
        "meta_norad_cat_id": 2965,
        "meta_element_set_no": 999,
        "meta_rev_at_epoch": 86954,
        "meta_bstar": 0.00020524,
        "meta_mean_motion_dot": 1.5e-06,
        "meta_mean_motion_ddot": 0,
        "tle_line1": "1 02965U 67092A   25336.16406191  .00000150  00000+0  20524-3 0  9994",
        "tle_line2": "2 02965  89.2508  25.2417 0045741 266.3193 147.0431 13.53449539869546"
      },
      "geometry": {
        "type": "Point",
        "coordinates": [
          25.428690292965868,
          15.567550293353595
        ]
      }
    },
    {
      "type": "Feature",
      "properties": {
        "norad_id": 3133,
        "name": "OPS 7034 (TRANSIT 18)",
        "group": "nnss",
        "lat": -54.77076887128069,
        "lon": 93.57239157875219,
        "alt_km": 1029.3640537641777,
        "timestamp": "2025-12-02T10:50:47.542408+00:00",
        "meta_object_name": "OPS 7034 (TRANSIT 18)",
        "meta_object_id": "1968-012A",
        "meta_epoch": "2025-12-02T02:38:24.343008",
        "meta_mean_motion": 13.51561982,
        "meta_eccentricity": 0.0072869,
        "meta_inclination": 90.0267,
        "meta_ra_of_asc_node": 273.6093,
        "meta_arg_of_pericenter": 200.0902,
        "meta_mean_anomaly": 171.388,
        "meta_ephemeris_type": 0,
        "meta_classification_type": "U",
        "meta_norad_cat_id": 3133,
        "meta_element_set_no": 999,
        "meta_rev_at_epoch": 56775,
        "meta_bstar": 0.00013268,
        "meta_mean_motion_dot": 9.7e-07,
        "meta_mean_motion_ddot": 0,
        "tle_line1": "1 03133U 68012A   25336.11000397  .00000097  00000+0  13268-3 0  9995",
        "tle_line2": "2 03133  90.0267 273.6093 0072869 200.0902 171.3880 13.51561982567750"
      },
      "geometry": {
        "type": "Point",
        "coordinates": [
          93.57239157875219,
          -54.77076887128069
        ]
      }
    },
    {
      "type": "Feature",
      "properties": {
        "norad_id": 4507,
        "name": "NNSS 19 (TRANSIT 19)",
        "group": "nnss",
        "lat": -33.22428084710244,
        "lon": 54.52282269670971,
        "alt_km": 1115.878198952798,
        "timestamp": "2025-12-02T10:50:47.542421+00:00",
        "meta_object_name": "NNSS 19 (TRANSIT 19)",
        "meta_object_id": "1970-067A",
        "meta_epoch": "2025-12-02T02:40:18.727104",
        "meta_mean_motion": 13.51310591,
        "meta_eccentricity": 0.0171284,
        "meta_inclination": 90.0056,
        "meta_ra_of_asc_node": 234.5263,
        "meta_arg_of_pericenter": 324.3852,
        "meta_mean_anomaly": 34.5964,
        "meta_ephemeris_type": 0,
        "meta_classification_type": "U",
        "meta_norad_cat_id": 4507,
        "meta_element_set_no": 999,
        "meta_rev_at_epoch": 72078,
        "meta_bstar": 0.0002359,
        "meta_mean_motion_dot": 1.76e-06,
        "meta_mean_motion_ddot": 0,
        "tle_line1": "1 04507U 70067A   25336.11132786  .00000176  00000+0  23590-3 0  9999",
        "tle_line2": "2 04507  90.0056 234.5263 0171284 324.3852  34.5964 13.51310591720787"
      },
      "geometry": {
        "type": "Point",
        "coordinates": [
          54.52282269670971,
          -33.22428084710244
        ]
      }
    },
    {
      "type": "Feature",
      "properties": {
        "norad_id": 6909,
        "name": "NNSS 20 (TRANSIT 20)",
        "group": "nnss",
        "lat": -84.35364173865086,
        "lon": 76.66997392512778,
        "alt_km": 1106.6478816327635,
        "timestamp": "2025-12-02T10:50:47.542432+00:00",
        "meta_object_name": "NNSS 20 (TRANSIT 20)",
        "meta_object_id": "1973-081A",
        "meta_epoch": "2025-12-02T00:49:04.315008",
        "meta_mean_motion": 13.71426833,
        "meta_eccentricity": 0.0156429,
        "meta_inclination": 89.8556,
        "meta_ra_of_asc_node": 255.2147,
        "meta_arg_of_pericenter": 110.0227,
        "meta_mean_anomaly": 251.7855,
        "meta_ephemeris_type": 0,
        "meta_classification_type": "U",
        "meta_norad_cat_id": 6909,
        "meta_element_set_no": 999,
        "meta_rev_at_epoch": 80214,
        "meta_bstar": 0.00024394,
        "meta_mean_motion_dot": 2.51e-06,
        "meta_mean_motion_ddot": 0,
        "tle_line1": "1 06909U 73081A   25336.03407772  .00000251  00000+0  24394-3 0  9994",
        "tle_line2": "2 06909  89.8556 255.2147 0156429 110.0227 251.7855 13.71426833802149"
      },
      "geometry": {
        "type": "Point",
        "coordinates": [
          76.66997392512778,
          -84.35364173865086
        ]
      }
    },
    {
      "type": "Feature",
      "properties": {
        "norad_id": 10457,
        "name": "TRANSAT",
        "group": "nnss",
        "lat": -52.18119178022042,
        "lon": 78.50758629339367,
        "alt_km": 1082.4845072352537,
        "timestamp": "2025-12-02T10:50:47.542444+00:00",
        "meta_object_name": "TRANSAT",
        "meta_object_id": "1977-106A",
        "meta_epoch": "2025-12-02T01:17:02.439744",
        "meta_mean_motion": 13.48940886,
        "meta_eccentricity": 0.0024441,
        "meta_inclination": 89.6482,
        "meta_ra_of_asc_node": 78.9752,
        "meta_arg_of_pericenter": 221.0927,
        "meta_mean_anomaly": 312.7774,
        "meta_ephemeris_type": 0,
        "meta_classification_type": "U",
        "meta_norad_cat_id": 10457,
        "meta_element_set_no": 999,
        "meta_rev_at_epoch": 36599,
        "meta_bstar": 0.00011583,
        "meta_mean_motion_dot": 8.3e-07,
        "meta_mean_motion_ddot": 0,
        "tle_line1": "1 10457U 77106A   25336.05350046  .00000083  00000+0  11583-3 0  9991",
        "tle_line2": "2 10457  89.6482  78.9752 0024441 221.0927 312.7774 13.48940886365996"
      },
      "geometry": {
        "type": "Point",
        "coordinates": [
          78.50758629339367,
          -52.18119178022042
        ]
      }
    },
    {
      "type": "Feature",
      "properties": {
        "norad_id": 12458,
        "name": "NOVA 1",
        "group": "nnss",
        "lat": 78.20984317034372,
        "lon": 92.23949950036373,
        "alt_km": 1157.6305509635595,
        "timestamp": "2025-12-02T10:50:47.542455+00:00",
        "meta_object_name": "NOVA 1",
        "meta_object_id": "1981-044A",
        "meta_epoch": "2025-12-02T02:15:01.289952",
        "meta_mean_motion": 13.23276665,
        "meta_eccentricity": 0.001555,
        "meta_inclination": 89.8521,
        "meta_ra_of_asc_node": 91.5356,
        "meta_arg_of_pericenter": 130.2253,
        "meta_mean_anomaly": 42.864,
        "meta_ephemeris_type": 0,
        "meta_classification_type": "U",
        "meta_norad_cat_id": 12458,
        "meta_element_set_no": 999,
        "meta_rev_at_epoch": 15045,
        "meta_bstar": 0.00012396,
        "meta_mean_motion_dot": 6.2e-07,
        "meta_mean_motion_ddot": 0,
        "tle_line1": "1 12458U 81044A   25336.09376493  .00000062  00000+0  12396-3 0  9998",
        "tle_line2": "2 12458  89.8521  91.5356 0015550 130.2253  42.8640 13.23276665150456"
      },
      "geometry": {
        "type": "Point",
        "coordinates": [
          92.23949950036373,
          78.20984317034372
        ]
      }
    }
  ]
}